ALOS-2                  
1 39766U 14029A   26095.56905391  .00000806  00000+0  11477-3 0  9993
2 39766  97.9195 193.7751 0001832  96.0580 264.0840 14.79454869640841
YAOGAN-29               
1 41038U 15069A   26095.51318234  .00001535  00000+0  19536-3 0  9996
2 41038  98.0099 124.0102 0000157 154.2267 205.8954 14.83030437559851
ASTRO-H (HITOMI)        
1 41337U 16012A   26095.53631347  .00003845  00000+0  22384-3 0  9993
2 41337  30.9986 183.2757 0009679 241.7023 118.2639 15.10186615556299
HXMT (HUIYAN)           
1 42758U 17034A   26095.49871272  .00009038  00000+0  44441-3 0  9992
2 42758  43.0141 227.5852 0030779  42.4601 317.8621 15.17835766486617
SAOCOM 1A               
1 43641U 18076A   26094.81958130  .00001432  00000+0  18641-3 0  9998
2 43641  97.8896 282.6237 0001476  86.6110 273.5272 14.82153107405231
H-2A R/B                
1 43682U 18084L   26095.53424460  .00023846  00000+0  54503-3 0  9996
2 43682  98.8679 318.6803 0023229 290.6543  69.2209 15.42577704409911
SAOCOM 1B               
1 46265U 20059A   26095.52593896  .00000377  00000+0  53982-4 0  9995
2 46265  97.8884 282.4161 0001393  84.1384 275.9988 14.82150868302722
CSS (TIANHE)            
1 48274U 21035A   26095.32454764  .00033172  00000+0  37223-3 0  9998
2 48274  41.4682  45.9319 0003558 129.2727 230.8429 15.61942740281776
COSMOS 2550             
1 48865U 21056A   26094.40472941  .00002815  00000+0  91326-4 0  9997
2 48865  67.1431 323.0974 0008430 269.6767  90.3422 15.33837300267403
CZ-2C R/B               
1 52794U 22058K   26095.43345979  .00042461  00000+0  57073-3 0  9991
2 52794  50.1872 180.5101 0041117 315.5678  44.1997 15.56407820214297
CZ-2C R/B               
1 54039U 22132E   26095.51519980  .00054915  00000+0  56523-3 0  9998
2 54039  97.2954  99.6983 0015623   0.3056 359.8210 15.64543559194564
GSLV R/B                
1 54149U 22138AN  26095.19407473  .00003724  00000+0  31994-3 0  9990
2 54149  87.3847 157.4876 0023608  59.5844 300.7716 14.96953742187891
