CCSDS_OMM_VERS = 2.0
CREATION_DATE  = 
ORIGINATOR     = 

OBJECT_NAME    = ALOS-2
OBJECT_ID      = 2014-029A
CENTER_NAME    = EARTH
REF_FRAME      = TEME
TIME_SYSTEM    = UTC
MEAN_ELEMENT_THEORY = SGP/SGP4

EPOCH          = 2026-04-05T13:39:26.257824
MEAN_MOTION    = 14.79454869
ECCENTRICITY   = .0001832
INCLINATION    = 97.9195
RA_OF_ASC_NODE = 193.7751
ARG_OF_PERICENTER = 96.0580
MEAN_ANOMALY   = 264.0840

EPHEMERIS_TYPE = 0
CLASSIFICATION_TYPE = U
NORAD_CAT_ID   = 39766
ELEMENT_SET_NO = 999
REV_AT_EPOCH   = 64084
BSTAR          = .11477E-3
MEAN_MOTION_DOT = .806E-5
MEAN_MOTION_DDOT = 0

CCSDS_OMM_VERS = 2.0
CREATION_DATE  = 
ORIGINATOR     = 

OBJECT_NAME    = YAOGAN-29
OBJECT_ID      = 2015-069A
CENTER_NAME    = EARTH
REF_FRAME      = TEME
TIME_SYSTEM    = UTC
MEAN_ELEMENT_THEORY = SGP/SGP4

EPOCH          = 2026-04-05T12:18:58.954176
MEAN_MOTION    = 14.83030437
ECCENTRICITY   = .0000157
INCLINATION    = 98.0099
RA_OF_ASC_NODE = 124.0102
ARG_OF_PERICENTER = 154.2267
MEAN_ANOMALY   = 205.8954

EPHEMERIS_TYPE = 0
CLASSIFICATION_TYPE = U
NORAD_CAT_ID   = 41038
ELEMENT_SET_NO = 999
REV_AT_EPOCH   = 55985
BSTAR          = .19536E-3
MEAN_MOTION_DOT = .1535E-4
MEAN_MOTION_DDOT = 0

CCSDS_OMM_VERS = 2.0
CREATION_DATE  = 
ORIGINATOR     = 

OBJECT_NAME    = ASTRO-H (HITOMI)
OBJECT_ID      = 2016-012A
CENTER_NAME    = EARTH
REF_FRAME      = TEME
TIME_SYSTEM    = UTC
MEAN_ELEMENT_THEORY = SGP/SGP4

EPOCH          = 2026-04-05T12:52:17.483808
MEAN_MOTION    = 15.10186615
ECCENTRICITY   = .0009679
INCLINATION    = 30.9986
RA_OF_ASC_NODE = 183.2757
ARG_OF_PERICENTER = 241.7023
MEAN_ANOMALY   = 118.2639

EPHEMERIS_TYPE = 0
CLASSIFICATION_TYPE = U
NORAD_CAT_ID   = 41337
ELEMENT_SET_NO = 999
REV_AT_EPOCH   = 55629
BSTAR          = .22384E-3
MEAN_MOTION_DOT = .3845E-4
MEAN_MOTION_DDOT = 0

CCSDS_OMM_VERS = 2.0
CREATION_DATE  = 
ORIGINATOR     = 

OBJECT_NAME    = HXMT (HUIYAN)
OBJECT_ID      = 2017-034A
CENTER_NAME    = EARTH
REF_FRAME      = TEME
TIME_SYSTEM    = UTC
MEAN_ELEMENT_THEORY = SGP/SGP4

EPOCH          = 2026-04-05T11:58:08.779008
MEAN_MOTION    = 15.17835766
ECCENTRICITY   = .0030779
INCLINATION    = 43.0141
RA_OF_ASC_NODE = 227.5852
ARG_OF_PERICENTER = 42.4601
MEAN_ANOMALY   = 317.8621

EPHEMERIS_TYPE = 0
CLASSIFICATION_TYPE = U
NORAD_CAT_ID   = 42758
ELEMENT_SET_NO = 999
REV_AT_EPOCH   = 48661
BSTAR          = .44441E-3
MEAN_MOTION_DOT = .9038E-4
MEAN_MOTION_DDOT = 0

CCSDS_OMM_VERS = 2.0
CREATION_DATE  = 
ORIGINATOR     = 

OBJECT_NAME    = SAOCOM 1A
OBJECT_ID      = 2018-076A
CENTER_NAME    = EARTH
REF_FRAME      = TEME
TIME_SYSTEM    = UTC
MEAN_ELEMENT_THEORY = SGP/SGP4

EPOCH          = 2026-04-04T19:40:11.824320
MEAN_MOTION    = 14.82153107
ECCENTRICITY   = .00014768
INCLINATION    = 97.8896
RA_OF_ASC_NODE = 282.6237
ARG_OF_PERICENTER = 86.6110
MEAN_ANOMALY   = 273.5272

EPHEMERIS_TYPE = 0
CLASSIFICATION_TYPE = U
NORAD_CAT_ID   = 43641
ELEMENT_SET_NO = 999
REV_AT_EPOCH   = 40523
BSTAR          = .18640936E-3
MEAN_MOTION_DOT = .1432E-4
MEAN_MOTION_DDOT = 0

CCSDS_OMM_VERS = 2.0
CREATION_DATE  = 
ORIGINATOR     = 

OBJECT_NAME    = H-2A R/B
OBJECT_ID      = 2018-084L
CENTER_NAME    = EARTH
REF_FRAME      = TEME
TIME_SYSTEM    = UTC
MEAN_ELEMENT_THEORY = SGP/SGP4

EPOCH          = 2026-04-05T12:49:18.733440
MEAN_MOTION    = 15.42577704
ECCENTRICITY   = .0023229
INCLINATION    = 98.8679
RA_OF_ASC_NODE = 318.6803
ARG_OF_PERICENTER = 290.6543
MEAN_ANOMALY   = 69.2209

EPHEMERIS_TYPE = 0
CLASSIFICATION_TYPE = U
NORAD_CAT_ID   = 43682
ELEMENT_SET_NO = 999
REV_AT_EPOCH   = 40991
BSTAR          = .54503E-3
MEAN_MOTION_DOT = .23846E-3
MEAN_MOTION_DDOT = 0

CCSDS_OMM_VERS = 2.0
CREATION_DATE  = 
ORIGINATOR     = 

OBJECT_NAME    = SAOCOM 1B
OBJECT_ID      = 2020-059A
CENTER_NAME    = EARTH
REF_FRAME      = TEME
TIME_SYSTEM    = UTC
MEAN_ELEMENT_THEORY = SGP/SGP4

EPOCH          = 2026-04-05T12:37:21.126144
MEAN_MOTION    = 14.82150868
ECCENTRICITY   = .0001393
INCLINATION    = 97.8884
RA_OF_ASC_NODE = 282.4161
ARG_OF_PERICENTER = 84.1384
MEAN_ANOMALY   = 275.9988

EPHEMERIS_TYPE = 0
CLASSIFICATION_TYPE = U
NORAD_CAT_ID   = 46265
ELEMENT_SET_NO = 999
REV_AT_EPOCH   = 30272
BSTAR          = .53982E-4
MEAN_MOTION_DOT = .377E-5
MEAN_MOTION_DDOT = 0

CCSDS_OMM_VERS = 2.0
CREATION_DATE  = 
ORIGINATOR     = 

OBJECT_NAME    = CSS (TIANHE)
OBJECT_ID      = 2021-035A
CENTER_NAME    = EARTH
REF_FRAME      = TEME
TIME_SYSTEM    = UTC
MEAN_ELEMENT_THEORY = SGP/SGP4

EPOCH          = 2026-04-05T07:47:20.916096
MEAN_MOTION    = 15.61942740
ECCENTRICITY   = .0003558
INCLINATION    = 41.4682
RA_OF_ASC_NODE = 45.9319
ARG_OF_PERICENTER = 129.2727
MEAN_ANOMALY   = 230.8429

EPHEMERIS_TYPE = 0
CLASSIFICATION_TYPE = U
NORAD_CAT_ID   = 48274
ELEMENT_SET_NO = 999
REV_AT_EPOCH   = 28177
BSTAR          = .37223E-3
MEAN_MOTION_DOT = .33172E-3
MEAN_MOTION_DDOT = 0

CCSDS_OMM_VERS = 2.0
CREATION_DATE  = 
ORIGINATOR     = 

OBJECT_NAME    = COSMOS 2550
OBJECT_ID      = 2021-056A
CENTER_NAME    = EARTH
REF_FRAME      = TEME
TIME_SYSTEM    = UTC
MEAN_ELEMENT_THEORY = SGP/SGP4

EPOCH          = 2026-04-04T09:42:48.621024
MEAN_MOTION    = 15.33837300
ECCENTRICITY   = .00084309
INCLINATION    = 67.1431
RA_OF_ASC_NODE = 323.0974
ARG_OF_PERICENTER = 269.6767
MEAN_ANOMALY   = 90.3422

EPHEMERIS_TYPE = 0
CLASSIFICATION_TYPE = U
NORAD_CAT_ID   = 48865
ELEMENT_SET_NO = 999
REV_AT_EPOCH   = 26740
BSTAR          = .91325794E-4
MEAN_MOTION_DOT = .2815E-4
MEAN_MOTION_DDOT = 0

CCSDS_OMM_VERS = 2.0
CREATION_DATE  = 
ORIGINATOR     = 

OBJECT_NAME    = CZ-2C R/B
OBJECT_ID      = 2022-058K
CENTER_NAME    = EARTH
REF_FRAME      = TEME
TIME_SYSTEM    = UTC
MEAN_ELEMENT_THEORY = SGP/SGP4

EPOCH          = 2026-04-05T10:24:10.925856
MEAN_MOTION    = 15.56407820
ECCENTRICITY   = .0041117
INCLINATION    = 50.1872
RA_OF_ASC_NODE = 180.5101
ARG_OF_PERICENTER = 315.5678
MEAN_ANOMALY   = 44.1997

EPHEMERIS_TYPE = 0
CLASSIFICATION_TYPE = U
NORAD_CAT_ID   = 52794
ELEMENT_SET_NO = 999
REV_AT_EPOCH   = 21429
BSTAR          = .57073E-3
MEAN_MOTION_DOT = .42461E-3
MEAN_MOTION_DDOT = 0

CCSDS_OMM_VERS = 2.0
CREATION_DATE  = 
ORIGINATOR     = 

OBJECT_NAME    = CZ-2C R/B
OBJECT_ID      = 2022-132E
CENTER_NAME    = EARTH
REF_FRAME      = TEME
TIME_SYSTEM    = UTC
MEAN_ELEMENT_THEORY = SGP/SGP4

EPOCH          = 2026-04-05T12:21:53.262720
MEAN_MOTION    = 15.64543559
ECCENTRICITY   = .0015623
INCLINATION    = 97.2954
RA_OF_ASC_NODE = 99.6983
ARG_OF_PERICENTER = 0.3056
MEAN_ANOMALY   = 359.8210

EPHEMERIS_TYPE = 0
CLASSIFICATION_TYPE = U
NORAD_CAT_ID   = 54039
ELEMENT_SET_NO = 999
REV_AT_EPOCH   = 19456
BSTAR          = .56523E-3
MEAN_MOTION_DOT = .54915E-3
MEAN_MOTION_DDOT = 0

CCSDS_OMM_VERS = 2.0
CREATION_DATE  = 
ORIGINATOR     = 

OBJECT_NAME    = GSLV R/B
OBJECT_ID      = 2022-138AN
CENTER_NAME    = EARTH
REF_FRAME      = TEME
TIME_SYSTEM    = UTC
MEAN_ELEMENT_THEORY = SGP/SGP4

EPOCH          = 2026-04-05T04:39:28.056672
MEAN_MOTION    = 14.96953742
ECCENTRICITY   = .00236088
INCLINATION    = 87.3847
RA_OF_ASC_NODE = 157.4876
ARG_OF_PERICENTER = 59.5844
MEAN_ANOMALY   = 300.7716

EPHEMERIS_TYPE = 0
CLASSIFICATION_TYPE = U
NORAD_CAT_ID   = 54149
ELEMENT_SET_NO = 999
REV_AT_EPOCH   = 18789
BSTAR          = .31994071E-3
MEAN_MOTION_DOT = .3724E-4
MEAN_MOTION_DDOT = 0

